start=new Date('2022-05-18T00:00:00.000Z').valueOf();
sats=[{"BSTAR":"-0.00007682600000","MEAN_MOTION_DDOT":"0.0000000000000","ELEMENT_SET_NO":"999","MEAN_MOTION_DOT":"-0.00001425","MEAN_ELEMENT_THEORY":"SGP4","OBJECT_ID":"2020-006BE","COUNTRY_CODE":"US","ECCENTRICITY":"0.00015460","RCS_SIZE":"LARGE","NORAD_CAT_ID":"45096","PERIOD":"95.593","LAUNCH_DATE":"2020-01-29","INCLINATION":"53.0549","TIME_SYSTEM":"UTC","SEMIMAJOR_AXIS":"6925.375","RA_OF_ASC_NODE":"16.9582","PERIAPSIS":"546.169","MEAN_ANOMALY":"298.2321","MEAN_MOTION":"15.06391350","CENTER_NAME":"EARTH","APOAPSIS":"548.311","GP_ID":"203781498","CLASSIFICATION_TYPE":"U","OBJECT_NAME":"STARLINK-1152","FILE":"3450137","EPOCH":"2022-05-17T09:02:00.769056","DECAY_DATE":null,"TLE_LINE1":"1 45096U 20006BE  22137.37639779 -.00001425  00000-0 -76826-4 0  9995","EPHEMERIS_TYPE":"0","REF_FRAME":"TEME","SITE":"AFETR","ARG_OF_PERICENTER":"61.8824","OBJECT_TYPE":"PAYLOAD","REV_AT_EPOCH":"12716","TLE_LINE2":"2 45096  53.0549  16.9582 0001546  61.8824 298.2321 15.06391350127165"},{"APOAPSIS":"548.238","CENTER_NAME":"EARTH","OBJECT_NAME":"STARLINK-1184","GP_ID":"203780248","CLASSIFICATION_TYPE":"U","FILE":"3450137","RA_OF_ASC_NODE":"17.0393","SEMIMAJOR_AXIS":"6925.361","PERIAPSIS":"546.215","MEAN_ANOMALY":"283.6597","MEAN_MOTION":"15.06395834","SITE":"AFETR","ARG_OF_PERICENTER":"76.4555","EPHEMERIS_TYPE":"0","REF_FRAME":"TEME","REV_AT_EPOCH":"12716","TLE_LINE2":"2 45098  53.0549  17.0393 0001461  76.4555 283.6597 15.06395834127162","OBJECT_TYPE":"PAYLOAD","EPOCH":"2022-05-17T08:35:28.245120","DECAY_DATE":null,"TLE_LINE1":"1 45098U 20006BG  22137.35796580 -.00001892  00000-0 -10814-3 0  9991","PERIOD":"95.592","RCS_SIZE":"LARGE","NORAD_CAT_ID":"45098","LAUNCH_DATE":"2020-01-29","COUNTRY_CODE":"US","ECCENTRICITY":"0.00014610","MEAN_MOTION_DOT":"-0.00001892","BSTAR":"-0.00010814000000","MEAN_MOTION_DDOT":"0.0000000000000","ELEMENT_SET_NO":"999","OBJECT_ID":"2020-006BG","MEAN_ELEMENT_THEORY":"SGP4","TIME_SYSTEM":"UTC","INCLINATION":"53.0549"},{"INCLINATION":"53.0550","TIME_SYSTEM":"UTC","BSTAR":"-0.00002455900000","MEAN_MOTION_DDOT":"0.0000000000000","ELEMENT_SET_NO":"999","MEAN_MOTION_DOT":"-0.00000647","MEAN_ELEMENT_THEORY":"SGP4","OBJECT_ID":"2020-006BH","COUNTRY_CODE":"US","ECCENTRICITY":"0.00016010","RCS_SIZE":"LARGE","PERIOD":"95.593","NORAD_CAT_ID":"45099","LAUNCH_DATE":"2020-01-29","EPOCH":"2022-05-17T09:23:14.274816","DECAY_DATE":null,"TLE_LINE1":"1 45099U 20006BH  22137.39113744 -.00000647  00000-0 -24559-4 0  9990","EPHEMERIS_TYPE":"0","REF_FRAME":"TEME","ARG_OF_PERICENTER":"56.9844","SITE":"AFETR","OBJECT_TYPE":"PAYLOAD","REV_AT_EPOCH":"12717","TLE_LINE2":"2 45099  53.0550  16.9051 0001601  56.9844 303.1299 15.06392836127171","RA_OF_ASC_NODE":"16.9051","SEMIMAJOR_AXIS":"6925.371","MEAN_ANOMALY":"303.1299","PERIAPSIS":"546.127","MEAN_MOTION":"15.06392836","CENTER_NAME":"EARTH","APOAPSIS":"548.344","GP_ID":"203780007","CLASSIFICATION_TYPE":"U","OBJECT_NAME":"STARLINK-1186","FILE":"3450137"},{"RCS_SIZE":"LARGE","NORAD_CAT_ID":"45100","PERIOD":"95.593","LAUNCH_DATE":"2020-01-29","COUNTRY_CODE":"US","ECCENTRICITY":"0.00013790","MEAN_MOTION_DOT":"0.00000731","BSTAR":"0.00006796800000","MEAN_MOTION_DDOT":"0.0000000000000","ELEMENT_SET_NO":"999","MEAN_ELEMENT_THEORY":"SGP4","OBJECT_ID":"2020-006BJ","TIME_SYSTEM":"UTC","INCLINATION":"53.0580","CENTER_NAME":"EARTH","APOAPSIS":"548.191","OBJECT_NAME":"STARLINK-1193","GP_ID":"203781248","CLASSIFICATION_TYPE":"U","FILE":"3450137","RA_OF_ASC_NODE":"17.0573","SEMIMAJOR_AXIS":"6925.371","PERIAPSIS":"546.281","MEAN_ANOMALY":"281.8170","MEAN_MOTION":"15.06392754","SITE":"AFETR","ARG_OF_PERICENTER":"78.2974","EPHEMERIS_TYPE":"0","REF_FRAME":"TEME","REV_AT_EPOCH":"12716","TLE_LINE2":"2 45100  53.0580  17.0573 0001379  78.2974 281.8170 15.06392754127169","OBJECT_TYPE":"PAYLOAD","EPOCH":"2022-05-17T08:30:09.668448","DECAY_DATE":null,"TLE_LINE1":"1 45100U 20006BJ  22137.35427857  .00000731  00000-0  67968-4 0  9995"},{"FILE":"3450137","OBJECT_NAME":"STARLINK-1194","GP_ID":"203781009","CLASSIFICATION_TYPE":"U","APOAPSIS":"548.399","CENTER_NAME":"EARTH","MEAN_MOTION":"15.06399926","PERIAPSIS":"546.029","MEAN_ANOMALY":"294.0819","SEMIMAJOR_AXIS":"6925.349","RA_OF_ASC_NODE":"17.9519","TLE_LINE2":"2 45101  53.0558  17.9519 0001711  66.0349 294.0819 15.06399926127136","REV_AT_EPOCH":"12713","OBJECT_TYPE":"PAYLOAD","ARG_OF_PERICENTER":"66.0349","SITE":"AFETR","REF_FRAME":"TEME","EPHEMERIS_TYPE":"0","TLE_LINE1":"1 45101U 20006BK  22137.15154557  .00001967  00000-0  15090-3 0  9998","DECAY_DATE":null,"EPOCH":"2022-05-17T03:38:13.537248","LAUNCH_DATE":"2020-01-29","NORAD_CAT_ID":"45101","RCS_SIZE":"LARGE","PERIOD":"95.592","ECCENTRICITY":"0.00017110","COUNTRY_CODE":"US","MEAN_ELEMENT_THEORY":"SGP4","OBJECT_ID":"2020-006BK","MEAN_MOTION_DOT":"0.00001967","ELEMENT_SET_NO":"999","MEAN_MOTION_DDOT":"0.0000000000000","BSTAR":"0.00015090000000","INCLINATION":"53.0558","TIME_SYSTEM":"UTC"},{"MEAN_MOTION_DOT":"0.00006710","MEAN_MOTION_DDOT":"0.0000000000000","BSTAR":"0.00046869000000","ELEMENT_SET_NO":"999","MEAN_ELEMENT_THEORY":"SGP4","OBJECT_ID":"2020-006BL","RCS_SIZE":"LARGE","PERIOD":"95.591","NORAD_CAT_ID":"45102","LAUNCH_DATE":"2020-01-29","COUNTRY_CODE":"US","ECCENTRICITY":"0.00014200","INCLINATION":"53.0544","TIME_SYSTEM":"UTC","SEMIMAJOR_AXIS":"6925.292","RA_OF_ASC_NODE":"16.9769","MEAN_ANOMALY":"293.2325","PERIAPSIS":"546.174","MEAN_MOTION":"15.06418440","CENTER_NAME":"EARTH","APOAPSIS":"548.140","GP_ID":"203779759","OBJECT_NAME":"STARLINK-1195","CLASSIFICATION_TYPE":"U","FILE":"3450137","EPOCH":"2022-05-17T08:56:42.663264","DECAY_DATE":null,"TLE_LINE1":"1 45102U 20006BL  22137.37271601  .00006710  00000-0  46869-3 0  9992","ARG_OF_PERICENTER":"66.8813","SITE":"AFETR","EPHEMERIS_TYPE":"0","REF_FRAME":"TEME","REV_AT_EPOCH":"12716","TLE_LINE2":"2 45102  53.0544  16.9769 0001420  66.8813 293.2325 15.06418440127168","OBJECT_TYPE":"PAYLOAD"},{"RA_OF_ASC_NODE":"16.8671","SEMIMAJOR_AXIS":"6925.434","MEAN_MOTION":"15.06372191","MEAN_ANOMALY":"269.9391","PERIAPSIS":"546.365","APOAPSIS":"548.232","CENTER_NAME":"EARTH","FILE":"3450137","GP_ID":"203780497","CLASSIFICATION_TYPE":"U","OBJECT_NAME":"STARLINK-1196","DECAY_DATE":null,"EPOCH":"2022-05-17T09:43:04.953216","TLE_LINE1":"1 45103U 20006BM  22137.40491844  .00002208  00000-0  16722-3 0  9993","SITE":"AFETR","ARG_OF_PERICENTER":"90.1753","REF_FRAME":"TEME","EPHEMERIS_TYPE":"0","TLE_LINE2":"2 45103  53.0514  16.8671 0001348  90.1753 269.9391 15.06372191127175","REV_AT_EPOCH":"12717","OBJECT_TYPE":"PAYLOAD","MEAN_MOTION_DOT":"0.00002208","ELEMENT_SET_NO":"999","MEAN_MOTION_DDOT":"0.0000000000000","BSTAR":"0.00016722000000","MEAN_ELEMENT_THEORY":"SGP4","OBJECT_ID":"2020-006BM","LAUNCH_DATE":"2020-01-29","NORAD_CAT_ID":"45103","RCS_SIZE":"LARGE","PERIOD":"95.594","ECCENTRICITY":"0.00013480","COUNTRY_CODE":"US","TIME_SYSTEM":"UTC","INCLINATION":"53.0514"},{"INCLINATION":"53.0557","TIME_SYSTEM":"UTC","LAUNCH_DATE":"2020-02-17","RCS_SIZE":"LARGE","PERIOD":"95.593","NORAD_CAT_ID":"45178","ECCENTRICITY":"0.00016780","COUNTRY_CODE":"US","MEAN_MOTION_DOT":"-0.00002100","ELEMENT_SET_NO":"999","MEAN_MOTION_DDOT":"0.0000000000000","BSTAR":"-0.00012219000000","OBJECT_ID":"2020-012A","MEAN_ELEMENT_THEORY":"SGP4","ARG_OF_PERICENTER":"57.2979","SITE":"AFETR","REF_FRAME":"TEME","EPHEMERIS_TYPE":"0","TLE_LINE2":"2 45178  53.0557 176.5977 0001678  57.2979 302.8172 15.06385207124934","REV_AT_EPOCH":"12493","OBJECT_TYPE":"PAYLOAD","DECAY_DATE":null,"EPOCH":"2022-05-17T10:58:48.133056","TLE_LINE1":"1 45178U 20012A   22137.45750154 -.00002100  00000-0 -12219-3 0  9999","CENTER_NAME":"EARTH","APOAPSIS":"548.421","FILE":"3450137","GP_ID":"203781506","OBJECT_NAME":"STARLINK-1138","CLASSIFICATION_TYPE":"U","SEMIMAJOR_AXIS":"6925.394","RA_OF_ASC_NODE":"176.5977","MEAN_MOTION":"15.06385207","MEAN_ANOMALY":"302.8172","PERIAPSIS":"546.097"},{"SEMIMAJOR_AXIS":"6925.322","RA_OF_ASC_NODE":"176.2659","PERIAPSIS":"545.832","MEAN_ANOMALY":"320.6090","MEAN_MOTION":"15.06408526","CENTER_NAME":"EARTH","APOAPSIS":"548.543","GP_ID":"203791433","OBJECT_NAME":"STARLINK-1143","CLASSIFICATION_TYPE":"U","FILE":"3450399","EPOCH":"2022-05-17T12:39:37.902528","DECAY_DATE":null,"TLE_LINE1":"1 45179U 20012B   22137.52752202  .00000675  00000-0  64216-4 0  9992","EPHEMERIS_TYPE":"0","REF_FRAME":"TEME","ARG_OF_PERICENTER":"39.5041","SITE":"AFETR","OBJECT_TYPE":"PAYLOAD","REV_AT_EPOCH":"12435","TLE_LINE2":"2 45179  53.0531 176.2659 0001957  39.5041 320.6090 15.06408526124357","MEAN_MOTION_DDOT":"0.0000000000000","BSTAR":"0.00006421600000","ELEMENT_SET_NO":"999","MEAN_MOTION_DOT":"0.00000675","MEAN_ELEMENT_THEORY":"SGP4","OBJECT_ID":"2020-012B","COUNTRY_CODE":"US","ECCENTRICITY":"0.00019570","RCS_SIZE":"LARGE","NORAD_CAT_ID":"45179","PERIOD":"95.592","LAUNCH_DATE":"2020-02-17","INCLINATION":"53.0531","TIME_SYSTEM":"UTC"},{"LAUNCH_DATE":"2020-02-17","PERIOD":"95.449","RCS_SIZE":"LARGE","NORAD_CAT_ID":"45180","ECCENTRICITY":"0.00015400","COUNTRY_CODE":"US","MEAN_MOTION_DOT":"0.00015197","ELEMENT_SET_NO":"999","BSTAR":"0.00097568000000","MEAN_MOTION_DDOT":"0.0000000000000","OBJECT_ID":"2020-012C","MEAN_ELEMENT_THEORY":"SGP4","TIME_SYSTEM":"UTC","INCLINATION":"53.0507","APOAPSIS":"541.378","CENTER_NAME":"EARTH","FILE":"3450137","GP_ID":"203780015","CLASSIFICATION_TYPE":"U","OBJECT_NAME":"STARLINK-1192","RA_OF_ASC_NODE":"175.6227","SEMIMAJOR_AXIS":"6918.448","MEAN_MOTION":"15.08654422","MEAN_ANOMALY":"359.9677","PERIAPSIS":"539.247","ARG_OF_PERICENTER":"0.1313","SITE":"AFETR","REF_FRAME":"TEME","EPHEMERIS_TYPE":"0","TLE_LINE2":"2 45180  53.0507 175.6227 0001540   0.1313 359.9677 15.08654422125010","REV_AT_EPOCH":"12501","OBJECT_TYPE":"PAYLOAD","DECAY_DATE":null,"EPOCH":"2022-05-17T12:31:42.431232","TLE_LINE1":"1 45180U 20012C   22137.52201888  .00015197  00000-0  97568-3 0  9993"}];
